440P/Kobayashi,e,12.3409,328.8527,183.2869,8.577247,0.0392358,0.76047580,24.8781,12/24.0/2023,2000,g 15.5,4.0
# From MPEC 2022-X67
441P/PANSTARRS,e,2.5744,143.6063,178.8476,4.133978,0.1172605,0.19513603,286.6869,12/24.0/2023,2000,g 13.5,4.0
# From MPEC 2023-J29
442P/McNaught,e,6.0582,32.0086,310.7776,4.966196,0.0890570,0.53286093,43.8578,12/24.0/2023,2000,g 13.5,4.0
# From MPEC 2023-SQ0
443P/PANSTARRS-Christensen,e,19.8885,108.9435,145.1086,4.125744,0.1176117,0.28342888,51.7389,12/24.0/2023,2000,g 13.5,4.0
# From MPEC 2023-VM5
444P/WISE-PANSTARRS,e,22.1945,89.0906,171.3699,3.436854,0.1546900,0.57068962,82.1733,12/24.0/2023,2000,g 17.0,4.0
# From MPEC 2022-YB4
445P/Lemmon-PANSTARRS,e,1.0885,126.5929,213.4363,4.052989,0.1207928,0.41403180,59.6702,12/24.0/2023,2000,g 15.0,4.0
# From MPEC 2022-WQ9
446P/McNaught,e,16.6144,336.3846,344.6870,4.566487,0.1010022,0.64681649,57.9325,12/24.0/2023,2000,g 16.5,4.0
# From MPEC 2022-YB4
447P/Sheppard-Tholen,e,7.4368,302.6433,97.7381,5.634485,0.0736924,0.17866773,36.2394,12/24.0/2023,2000,g 12.0,4.0
# From MPEC 2023-A50
448P/PANSTARRS,e,12.1508,161.7560,218.7467,3.634639,0.1422368,0.41873298,67.3442,12/24.0/2023,2000,g 16.0,4.0
# From MPEC 2022-UE6
449P/Leonard,e,15.4663,242.5404,176.7014,3.600100,0.1442887,0.47983054,162.2650,12/24.0/2023,2000,g 16.0,4.0
# From MPEC 2023-Y70
450P/LONEOS,e,10.5556,124.8053,21.2966,7.973402,0.0437763,0.31177212,310.9637,12/24.0/2023,2000,g  6.5,4.0
# From MPEC 2023-HD1
451P/Christensen,e,26.4795,300.8987,186.7167,6.343201,0.0616938,0.55882457,24.1469,12/24.0/2023,2000,g 15.5,4.0
# From MPEC 2023-J29
452P/Sheppard-Jewitt,e,6.4216,123.6887,37.0419,7.301108,0.0499598,0.42775114,12.1130,12/24.0/2023,2000,g  9.0,4.0
# From MPEC 2023-RF3
453P/WISE-Lemmon,e,27.0680,42.8958,70.8455,5.461573,0.0772196,0.58280160,22.8501,12/24.0/2023,2000,g 14.0,4.0
# From MPEC 2023-CD7
454P/PANSTARRS,e,19.8127,54.5825,20.0706,4.207905,0.1141840,0.36156062,58.8868,12/24.0/2023,2000,g 14.0,4.0
# From MPEC 2022-Y14
455P/PANSTARRS,e,14.1376,146.1845,237.5108,3.152839,0.1760563,0.30490694,53.1292,12/24.0/2023,2000,g 17.0,4.0
# From MPEC 2023-N01
456P/PANSTARRS,e,16.9640,243.1700,233.8852,3.170134,0.1746175,0.11775629,275.9045,12/24.0/2023,2000,g 13.5,4.0
# From MPEC 2023-F99
457P/Lemmon-PANSTARRS,e,5.2252,175.9737,104.4111,2.646084,0.2289806,0.11872347,304.9475,12/24.0/2023,2000,g 15.5,4.0
# From MPEC 2023-HD1
458P/Jahn,e,13.6272,1.5871,104.8231,3.857313,0.1300998,0.31706586,54.6059,12/24.0/2023,2000,g 17.3,4.0
# From MPEC 2023-UR6
459P/Catalina,e,7.1725,256.9911,205.1970,3.239556,0.1690347,0.57767389,51.6550,12/24.0/2023,2000,g 15.5,4.0
# From MPEC 2023-G14
460P/PANSTARRS,e,18.8953,180.5152,351.9573,3.027072,0.1871415,0.66402917,172.2766,12/24.0/2023,2000,g 21.0,4.0
# From MPEC 2023-J95
461P/WISE,e,18.4108,194.3774,174.8241,3.143123,0.1768732,0.57017237,143.2836,12/24.0/2023,2000,g 18.5,4.0
# From MPEC 2023-JA3
462P/LONEOS-PANSTARRS,e,7.0260,322.7976,4.3889,4.879610,0.0914379,0.57825809,46.5445,12/24.0/2023,2000,g 17.0,4.0
# From MPEC 2023-XP6
463P/NEOWISE,e,29.2833,283.2092,216.3597,2.974540,0.1921208,0.82558948,51.7520,12/24.0/2023,2000,g 18.0,4.0
# From MPEC 2023-RF3
464P/PANSTARRS,e,21.6657,309.5822,267.6607,4.687087,0.0971292,0.28053000,29.0506,12/24.0/2023,2000,g 10.5,4.0
# From MPEC 2023-Y70
465P/Hill,e,25.8715,218.0111,141.1862,6.036131,0.0664609,0.61415546,15.1688,12/24.0/2023,2000,g 12.5,4.0
# From MPEC 2023-VM5
466P/PANSTARRS,e,12.2349,119.8444,196.7618,4.045204,0.1211416,0.46730320,28.3727,12/24.0/2023,2000,g 14.0,4.0
# From MPEC 2023-T65
467P/LINEAR-Grauer,e,2.4788,43.2715,267.8306,5.831605,0.0699877,0.05540717,27.1148,12/24.0/2023,2000,g  9.0,4.0
# From MPEC 2023-XP6
468P/SidingSpring,e,50.4458,356.1242,322.5575,7.123390,0.0518411,0.44550749,1.7070,12/24.0/2023,2000,g 11.5,4.0
# From MPEC 2023-P35
469P/PANSTARRS,e,20.1741,178.9651,43.5336,4.339829,0.1090172,0.30747265,281.9695,12/24.0/2023,2000,g 13.5,4.0
# From MPEC 2023-Y70
470P/PANSTARRS,e,8.8397,246.1790,152.0332,4.476716,0.1040554,0.39046396,0.6066,12/24.0/2023,2000,g 15.5,4.0
# From MPEC 2023-Y70
471P/,e,4.7908,283.3386,94.9588,5.708660,0.0722608,0.62804030,0.2685,12/24.0/2023,2000,g 12.0,4.0
# From MPEC 2023-Y70
472P/NEAT-LINEAR,e,10.8553,206.0420,219.1739,7.804103,0.0452084,0.56588696,350.6902,12/24.0/2023,2000,g 10.5,4.0
# From MPC107687
1I/`Oumuamua,h,09/09.4886/2017,122.6778,24.5997,241.6845,1.199252,0.255240,2000,23.0,2.0
# From MPEC 2023-L37
2I/Borisov,h,12/08.5548/2019,44.0527,308.1480,209.1251,3.356633,2.006548,2000,11.0,4.0
